[{"OBJECT_NAME":"STARLINK-1008","OBJECT_ID":"2019-074B","EPOCH":"2026-03-09T21:39:16.345728","MEAN_MOTION":15.31032325,"ECCENTRICITY":0.00013832,"INCLINATION":53.1585,"RA_OF_ASC_NODE":177.7624,"ARG_OF_PERICENTER":87.0743,"MEAN_ANOMALY":273.0417,"EPHEMERIS_TYPE":0,"CLASSIFICATION_TYPE":"U","NORAD_CAT_ID":44714,"ELEMENT_SET_NO":999,"REV_AT_EPOCH":34890,"BSTAR":2.2205318e-5,"MEAN_MOTION_DOT":3.12e-6,"MEAN_MOTION_DDOT":0},{"OBJECT_NAME":"ARIANE 40 R\/B","OBJECT_ID":"1999-064C","EPOCH":"2026-03-09T18:24:37.025280","MEAN_MOTION":15.31364882,"ECCENTRICITY":0.00050095,"INCLINATION":98.1631,"RA_OF_ASC_NODE":150.8872,"ARG_OF_PERICENTER":91.4057,"MEAN_ANOMALY":268.7755,"EPHEMERIS_TYPE":0,"CLASSIFICATION_TYPE":"U","NORAD_CAT_ID":25979,"ELEMENT_SET_NO":999,"REV_AT_EPOCH":42869,"BSTAR":0.00066758353,"MEAN_MOTION_DOT":0.00020173,"MEAN_MOTION_DDOT":0}]
